0 FENGYUN 1C DEB
1 37464U 99025EJJ 13273.77372259  .00001111  00000-0  12352-2 0  1066
2 37464 102.7184 123.0862 0519598 325.0508 031.8019 13.28119823272989
0 FENGYUN 1C DEB
1 37464U 99025EJJ 13275.80748814  .00001131  00000-0  12618-2 0  1074
2 37464 102.7145 125.5786 0518066 320.8156 035.6701 13.28125221273259
0 FENGYUN 1C DEB
1 37464U 99025EJJ 13279.79969026  .00001228  00000-0  13574-2 0  1086
2 37464 102.7162 130.4916 0519642 312.0946 043.7858 13.28138242273787
0 FENGYUN 1C DEB
1 37464U 99025EJJ 13286.80483062  .00001382  00000-0  15239-2 0  1099
2 37464 102.7193 139.1249 0518677 297.4163 057.6402 13.28161600274717
